{"type":"FeatureCollection","features":[{"type":"Feature","geometry":{"type":"Polygon","coordinates":[]},"properties":{"level":"6<=cm"}},{"type":"Feature","geometry":{"type":"Polygon","coordinates":[]},"properties":{"level":"3<=cm<6"}},{"type":"Feature","geometry":{"type":"Polygon","coordinates":[]},"properties":{"level":"1<=cm<3"}},{"type":"Feature","geometry":{"type":"Polygon","coordinates":[[[-45,85],[315,85],[315,-85],[-45,-85]],[[141.438,45.9],[141.375,45.9],[141.375,45.85],[141.375,45.8],[141.375,45.75],[141.375,45.7],[141.312,45.7],[141.25,45.7],[141.188,45.7],[141.125,45.7],[141.062,45.7],[141,45.7],[140.938,45.7],[140.875,45.7],[140.812,45.7],[140.75,45.7],[140.688,45.7],[140.625,45.7],[140.625,45.65],[140.625,45.6],[140.625,45.55],[140.625,45.5],[140.625,45.45],[140.625,45.4],[140.625,45.35],[140.625,45.3],[140.625,45.25],[140.625,45.2],[140.625,45.15],[140.625,45.1],[140.625,45.05],[140.625,45],[140.625,44.95],[140.625,44.9],[140.688,44.9],[140.75,44.9],[140.812,44.9],[140.875,44.9],[140.875,44.85],[140.875,44.8],[140.875,44.75],[140.875,44.7],[140.875,44.65],[140.875,44.6],[140.875,44.55],[140.875,44.5],[140.875,44.45],[140.875,44.4],[140.875,44.35],[140.875,44.3],[140.875,44.25],[140.875,44.2],[140.875,44.15],[140.875,44.1],[140.875,44.05],[140.875,44],[140.875,43.95],[140.875,43.9],[140.875,43.85],[140.875,43.8],[140.875,43.75],[140.875,43.7],[140.812,43.7],[140.75,43.7],[140.688,43.7],[140.625,43.7],[140.562,43.7],[140.5,43.7],[140.438,43.7],[140.375,43.7],[140.312,43.7],[140.25,43.7],[140.188,43.7],[140.125,43.7],[140.062,43.7],[140,43.7],[139.938,43.7],[139.875,43.7],[139.875,43.65],[139.875,43.6],[139.875,43.55],[139.875,43.5],[139.875,43.45],[139.875,43.4],[139.875,43.35],[139.875,43.3],[139.875,43.25],[139.875,43.2],[139.875,43.15],[139.875,43.1],[139.812,43.1],[139.75,43.1],[139.688,43.1],[139.625,43.1],[139.562,43.1],[139.5,43.1],[139.438,43.1],[139.375,43.1],[139.375,43.05],[139.375,43],[139.375,42.95],[139.375,42.9],[139.375,42.85],[139.375,42.8],[139.375,42.75],[139.375,42.7],[139.312,42.7],[139.25,42.7],[139.188,42.7],[139.125,42.7],[139.125,42.65],[139.125,42.6],[139.125,42.55],[139.125,42.5],[139.125,42.45],[139.125,42.4],[139.125,42.35],[139.125,42.3],[139.125,42.25],[139.125,42.2],[139.125,42.15],[139.125,42.1],[139.125,42.05],[139.125,42],[139.125,41.95],[139.125,41.9],[139.062,41.9],[139,41.9],[138.938,41.9],[138.875,41.9],[138.875,41.85],[138.875,41.8],[138.875,41.75],[138.875,41.7],[138.875,41.65],[138.875,41.6],[138.875,41.55],[138.875,41.5],[138.875,41.45],[138.875,41.4],[138.875,41.35],[138.875,41.3],[138.875,41.25],[138.875,41.2],[138.875,41.15],[138.875,41.1],[138.938,41.1],[139,41.1],[139.062,41.1],[139.125,41.1],[139.188,41.1],[139.25,41.1],[139.312,41.1],[139.375,41.1],[139.438,41.1],[139.5,41.1],[139.562,41.1],[139.625,41.1],[139.625,41.05],[139.625,41],[139.625,40.95],[139.625,40.9],[139.562,40.9],[139.5,40.9],[139.438,40.9],[139.375,40.9],[139.375,40.85],[139.375,40.8],[139.375,40.75],[139.375,40.7],[139.375,40.65],[139.375,40.6],[139.375,40.55],[139.375,40.5],[139.375,40.45],[139.375,40.4],[139.375,40.35],[139.375,40.3],[139.375,40.25],[139.375,40.2],[139.375,40.15],[139.375,40.1],[139.375,40.05],[139.375,40],[139.375,39.95],[139.375,39.9],[139.375,39.85],[139.375,39.8],[139.375,39.75],[139.375,39.7],[139.375,39.65],[139.375,39.6],[139.375,39.55],[139.375,39.5],[139.375,39.45],[139.375,39.4],[139.375,39.35],[139.375,39.3],[139.375,39.25],[139.375,39.2],[139.375,39.15],[139.375,39.1],[139.312,39.1],[139.25,39.1],[139.188,39.1],[139.125,39.1],[139.125,39.05],[139.125,39],[139.125,38.95],[139.125,38.9],[139.062,38.9],[139,38.9],[138.938,38.9],[138.875,38.9],[138.875,38.85],[138.875,38.8],[138.875,38.75],[138.875,38.7],[138.812,38.7],[138.75,38.7],[138.688,38.7],[138.625,38.7],[138.562,38.7],[138.5,38.7],[138.438,38.7],[138.375,38.7],[138.312,38.7],[138.25,38.7],[138.188,38.7],[138.125,38.7],[138.062,38.7],[138,38.7],[137.938,38.7],[137.875,38.7],[137.875,38.65],[137.875,38.6],[137.875,38.55],[137.875,38.5],[137.875,38.45],[137.875,38.4],[137.875,38.35],[137.875,38.3],[137.812,38.3],[137.75,38.3],[137.688,38.3],[137.625,38.3],[137.625,38.25],[137.625,38.2],[137.625,38.15],[137.625,38.1],[137.625,38.05],[137.625,38],[137.625,37.95],[137.625,37.9],[137.562,37.9],[137.5,37.9],[137.438,37.9],[137.375,37.9],[137.375,37.95],[137.375,38],[137.375,38.05],[137.375,38.1],[137.375,38.15],[137.375,38.2],[137.375,38.25],[137.375,38.3],[137.312,38.3],[137.25,38.3],[137.188,38.3],[137.125,38.3],[137.062,38.3],[137,38.3],[136.938,38.3],[136.875,38.3],[136.812,38.3],[136.75,38.3],[136.688,38.3],[136.625,38.3],[136.625,38.25],[136.625,38.2],[136.625,38.15],[136.625,38.1],[136.562,38.1],[136.5,38.1],[136.438,38.1],[136.375,38.1],[136.375,38.05],[136.375,38],[136.375,37.95],[136.375,37.9],[136.375,37.85],[136.375,37.8],[136.375,37.75],[136.375,37.7],[136.375,37.65],[136.375,37.6],[136.375,37.55],[136.375,37.5],[136.312,37.5],[136.25,37.5],[136.188,37.5],[136.125,37.5],[136.125,37.45],[136.125,37.4],[136.125,37.35],[136.125,37.3],[136.125,37.25],[136.125,37.2],[136.125,37.15],[136.125,37.1],[136.125,37.05],[136.125,37],[136.125,36.95],[136.125,36.9],[136.125,36.85],[136.125,36.8],[136.125,36.75],[136.125,36.7],[136.062,36.7],[136,36.7],[135.938,36.7],[135.875,36.7],[135.812,36.7],[135.75,36.7],[135.688,36.7],[135.625,36.7],[135.625,36.65],[135.625,36.6],[135.625,36.55],[135.625,36.5],[135.625,36.45],[135.625,36.4],[135.625,36.35],[135.625,36.3],[135.562,36.3],[135.5,36.3],[135.438,36.3],[135.375,36.3],[135.375,36.25],[135.375,36.2],[135.375,36.15],[135.375,36.1],[135.312,36.1],[135.25,36.1],[135.188,36.1],[135.125,36.1],[135.062,36.1],[135,36.1],[134.938,36.1],[134.875,36.1],[134.812,36.1],[134.75,36.1],[134.688,36.1],[134.625,36.1],[134.562,36.1],[134.5,36.1],[134.438,36.1],[134.375,36.1],[134.312,36.1],[134.25,36.1],[134.188,36.1],[134.125,36.1],[134.062,36.1],[134,36.1],[133.938,36.1],[133.875,36.1],[133.875,36.15],[133.875,36.2],[133.875,36.25],[133.875,36.3],[133.875,36.35],[133.875,36.4],[133.875,36.45],[133.875,36.5],[133.875,36.55],[133.875,36.6],[133.875,36.65],[133.875,36.7],[133.812,36.7],[133.75,36.7],[133.688,36.7],[133.625,36.7],[133.562,36.7],[133.5,36.7],[133.438,36.7],[133.375,36.7],[133.312,36.7],[133.25,36.7],[133.188,36.7],[133.125,36.7],[133.062,36.7],[133,36.7],[132.938,36.7],[132.875,36.7],[132.875,36.65],[132.875,36.6],[132.875,36.55],[132.875,36.5],[132.812,36.5],[132.75,36.5],[132.688,36.5],[132.625,36.5],[132.625,36.45],[132.625,36.4],[132.625,36.35],[132.625,36.3],[132.562,36.3],[132.5,36.3],[132.438,36.3],[132.375,36.3],[132.375,36.25],[132.375,36.2],[132.375,36.15],[132.375,36.1],[132.375,36.05],[132.375,36],[132.375,35.95],[132.375,35.9],[132.375,35.85],[132.375,35.8],[132.375,35.75],[132.375,35.7],[132.312,35.7],[132.25,35.7],[132.188,35.7],[132.125,35.7],[132.125,35.65],[132.125,35.6],[132.125,35.55],[132.125,35.5],[132.062,35.5],[132,35.5],[131.938,35.5],[131.875,35.5],[131.875,35.45],[131.875,35.4],[131.875,35.35],[131.875,35.3],[131.812,35.3],[131.75,35.3],[131.688,35.3],[131.625,35.3],[131.625,35.25],[131.625,35.2],[131.625,35.15],[131.625,35.1],[131.562,35.1],[131.5,35.1],[131.438,35.1],[131.375,35.1],[131.375,35.15],[131.375,35.2],[131.375,35.25],[131.375,35.3],[131.312,35.3],[131.25,35.3],[131.188,35.3],[131.125,35.3],[131.062,35.3],[131,35.3],[130.938,35.3],[130.875,35.3],[130.875,35.25],[130.875,35.2],[130.875,35.15],[130.875,35.1],[130.812,35.1],[130.75,35.1],[130.688,35.1],[130.625,35.1],[130.625,35.05],[130.625,35],[130.625,34.95],[130.625,34.9],[130.625,34.85],[130.625,34.8],[130.625,34.75],[130.625,34.7],[130.562,34.7],[130.5,34.7],[130.438,34.7],[130.375,34.7],[130.312,34.7],[130.25,34.7],[130.188,34.7],[130.125,34.7],[130.125,34.75],[130.125,34.8],[130.125,34.85],[130.125,34.9],[130.062,34.9],[130,34.9],[129.938,34.9],[129.875,34.9],[129.875,34.95],[129.875,35],[129.875,35.05],[129.875,35.1],[129.812,35.1],[129.75,35.1],[129.688,35.1],[129.625,35.1],[129.562,35.1],[129.5,35.1],[129.438,35.1],[129.375,35.1],[129.312,35.1],[129.25,35.1],[129.188,35.1],[129.125,35.1],[129.062,35.1],[129,35.1],[128.938,35.1],[128.875,35.1],[128.875,35.05],[128.875,35],[128.875,34.95],[128.875,34.9],[128.875,34.85],[128.875,34.8],[128.875,34.75],[128.875,34.7],[128.812,34.7],[128.75,34.7],[128.688,34.7],[128.625,34.7],[128.625,34.65],[128.625,34.6],[128.625,34.55],[128.625,34.5],[128.625,34.45],[128.625,34.4],[128.625,34.35],[128.625,34.3],[128.625,34.25],[128.625,34.2],[128.625,34.15],[128.625,34.1],[128.625,34.05],[128.625,34],[128.625,33.95],[128.625,33.9],[128.625,33.85],[128.625,33.8],[128.625,33.75],[128.625,33.7],[128.625,33.65],[128.625,33.6],[128.625,33.55],[128.625,33.5],[128.562,33.5],[128.5,33.5],[128.438,33.5],[128.375,33.5],[128.375,33.45],[128.375,33.4],[128.375,33.35],[128.375,33.3],[128.375,33.25],[128.375,33.2],[128.375,33.15],[128.375,33.1],[128.312,33.1],[128.25,33.1],[128.188,33.1],[128.125,33.1],[128.125,33.05],[128.125,33],[128.125,32.95],[128.125,32.9],[128.125,32.85],[128.125,32.8],[128.125,32.75],[128.125,32.7],[128.062,32.7],[128,32.7],[127.938,32.7],[127.875,32.7],[127.812,32.7],[127.75,32.7],[127.688,32.7],[127.625,32.7],[127.625,32.65],[127.625,32.6],[127.625,32.55],[127.625,32.5],[127.625,32.45],[127.625,32.4],[127.625,32.35],[127.625,32.3],[127.625,32.25],[127.625,32.2],[127.625,32.15],[127.625,32.1],[127.625,32.05],[127.625,32],[127.625,31.95],[127.625,31.9],[127.688,31.9],[127.75,31.9],[127.812,31.9],[127.875,31.9],[127.875,31.85],[127.875,31.8],[127.875,31.75],[127.875,31.7],[127.938,31.7],[128,31.7],[128.062,31.7],[128.125,31.7],[128.125,31.65],[128.125,31.6],[128.125,31.55],[128.125,31.5],[128.188,31.5],[128.25,31.5],[128.312,31.5],[128.375,31.5],[128.438,31.5],[128.5,31.5],[128.562,31.5],[128.625,31.5],[128.625,31.55],[128.625,31.6],[128.625,31.65],[128.625,31.7],[128.688,31.7],[128.75,31.7],[128.812,31.7],[128.875,31.7],[128.875,31.75],[128.875,31.8],[128.875,31.85],[128.875,31.9],[128.875,31.95],[128.875,32],[128.875,32.05],[128.875,32.1],[128.938,32.1],[129,32.1],[129.062,32.1],[129.125,32.1],[129.188,32.1],[129.25,32.1],[129.312,32.1],[129.375,32.1],[129.375,32.05],[129.375,32],[129.375,31.95],[129.375,31.9],[129.312,31.9],[129.25,31.9],[129.188,31.9],[129.125,31.9],[129.125,31.85],[129.125,31.8],[129.125,31.75],[129.125,31.7],[129.125,31.65],[129.125,31.6],[129.125,31.55],[129.125,31.5],[129.062,31.5],[129,31.5],[128.938,31.5],[128.875,31.5],[128.875,31.45],[128.875,31.4],[128.875,31.35],[128.875,31.3],[128.875,31.25],[128.875,31.2],[128.875,31.15],[128.875,31.1],[128.875,31.05],[128.875,31],[128.875,30.95],[128.875,30.9],[128.875,30.85],[128.875,30.8],[128.875,30.75],[128.875,30.7],[128.938,30.7],[129,30.7],[129.062,30.7],[129.125,30.7],[129.125,30.65],[129.125,30.6],[129.125,30.55],[129.125,30.5],[129.125,30.45],[129.125,30.4],[129.125,30.35],[129.125,30.3],[129.125,30.25],[129.125,30.2],[129.125,30.15],[129.125,30.1],[129.125,30.05],[129.125,30],[129.125,29.95],[129.125,29.9],[129.125,29.85],[129.125,29.8],[129.125,29.75],[129.125,29.7],[129.125,29.65],[129.125,29.6],[129.125,29.55],[129.125,29.5],[129.062,29.5],[129,29.5],[128.938,29.5],[128.875,29.5],[128.875,29.45],[128.875,29.4],[128.875,29.35],[128.875,29.3],[128.812,29.3],[128.75,29.3],[128.688,29.3],[128.625,29.3],[128.625,29.25],[128.625,29.2],[128.625,29.15],[128.625,29.1],[128.625,29.05],[128.625,29],[128.625,28.95],[128.625,28.9],[128.625,28.85],[128.625,28.8],[128.625,28.75],[128.625,28.7],[128.625,28.65],[128.625,28.6],[128.625,28.55],[128.625,28.5],[128.625,28.45],[128.625,28.4],[128.625,28.35],[128.625,28.3],[128.562,28.3],[128.5,28.3],[128.438,28.3],[128.375,28.3],[128.375,28.25],[128.375,28.2],[128.375,28.15],[128.375,28.1],[128.375,28.05],[128.375,28],[128.375,27.95],[128.375,27.9],[128.375,27.85],[128.375,27.8],[128.375,27.75],[128.375,27.7],[128.312,27.7],[128.25,27.7],[128.188,27.7],[128.125,27.7],[128.125,27.65],[128.125,27.6],[128.125,27.55],[128.125,27.5],[128.062,27.5],[128,27.5],[127.938,27.5],[127.875,27.5],[127.812,27.5],[127.75,27.5],[127.688,27.5],[127.625,27.5],[127.625,27.45],[127.625,27.4],[127.625,27.35],[127.625,27.3],[127.562,27.3],[127.5,27.3],[127.438,27.3],[127.375,27.3],[127.375,27.25],[127.375,27.2],[127.375,27.15],[127.375,27.1],[127.312,27.1],[127.25,27.1],[127.188,27.1],[127.125,27.1],[127.062,27.1],[127,27.1],[126.938,27.1],[126.875,27.1],[126.875,27.05],[126.875,27],[126.875,26.95],[126.875,26.9],[126.812,26.9],[126.75,26.9],[126.688,26.9],[126.625,26.9],[126.562,26.9],[126.5,26.9],[126.438,26.9],[126.375,26.9],[126.375,26.85],[126.375,26.8],[126.375,26.75],[126.375,26.7],[126.312,26.7],[126.25,26.7],[126.188,26.7],[126.125,26.7],[126.125,26.65],[126.125,26.6],[126.125,26.55],[126.125,26.5],[126.125,26.45],[126.125,26.4],[126.125,26.35],[126.125,26.3],[126.125,26.25],[126.125,26.2],[126.125,26.15],[126.125,26.1],[126.188,26.1],[126.25,26.1],[126.312,26.1],[126.375,26.1],[126.375,26.05],[126.375,26],[126.375,25.95],[126.375,25.9],[126.438,25.9],[126.5,25.9],[126.562,25.9],[126.625,25.9],[126.688,25.9],[126.75,25.9],[126.812,25.9],[126.875,25.9],[126.875,25.85],[126.875,25.8],[126.875,25.75],[126.875,25.7],[126.938,25.7],[127,25.7],[127.062,25.7],[127.125,25.7],[127.188,25.7],[127.25,25.7],[127.312,25.7],[127.375,25.7],[127.438,25.7],[127.5,25.7],[127.562,25.7],[127.625,25.7],[127.688,25.7],[127.75,25.7],[127.812,25.7],[127.875,25.7],[127.938,25.7],[128,25.7],[128.062,25.7],[128.125,25.7],[128.188,25.7],[128.25,25.7],[128.312,25.7],[128.375,25.7],[128.375,25.75],[128.375,25.8],[128.375,25.85],[128.375,25.9],[128.375,25.95],[128.375,26],[128.375,26.05],[128.375,26.1],[128.438,26.1],[128.5,26.1],[128.562,26.1],[128.625,26.1],[128.625,26.15],[128.625,26.2],[128.625,26.25],[128.625,26.3],[128.688,26.3],[128.75,26.3],[128.812,26.3],[128.875,26.3],[128.875,26.35],[128.875,26.4],[128.875,26.45],[128.875,26.5],[128.875,26.55],[128.875,26.6],[128.875,26.65],[128.875,26.7],[128.875,26.75],[128.875,26.8],[128.875,26.85],[128.875,26.9],[128.875,26.95],[128.875,27],[128.875,27.05],[128.875,27.1],[128.938,27.1],[129,27.1],[129.062,27.1],[129.125,27.1],[129.125,27.15],[129.125,27.2],[129.125,27.25],[129.125,27.3],[129.188,27.3],[129.25,27.3],[129.312,27.3],[129.375,27.3],[129.375,27.35],[129.375,27.4],[129.375,27.45],[129.375,27.5],[129.375,27.55],[129.375,27.6],[129.375,27.65],[129.375,27.7],[129.438,27.7],[129.5,27.7],[129.562,27.7],[129.625,27.7],[129.625,27.75],[129.625,27.8],[129.625,27.85],[129.625,27.9],[129.688,27.9],[129.75,27.9],[129.812,27.9],[129.875,27.9],[129.938,27.9],[130,27.9],[130.062,27.9],[130.125,27.9],[130.188,27.9],[130.25,27.9],[130.312,27.9],[130.375,27.9],[130.375,27.95],[130.375,28],[130.375,28.05],[130.375,28.1],[130.375,28.15],[130.375,28.2],[130.375,28.25],[130.375,28.3],[130.375,28.35],[130.375,28.4],[130.375,28.45],[130.375,28.5],[130.375,28.55],[130.375,28.6],[130.375,28.65],[130.375,28.7],[130.312,28.7],[130.25,28.7],[130.188,28.7],[130.125,28.7],[130.125,28.75],[130.125,28.8],[130.125,28.85],[130.125,28.9],[130.062,28.9],[130,28.9],[129.938,28.9],[129.875,28.9],[129.812,28.9],[129.75,28.9],[129.688,28.9],[129.625,28.9],[129.625,28.95],[129.625,29],[129.625,29.05],[129.625,29.1],[129.688,29.1],[129.75,29.1],[129.812,29.1],[129.875,29.1],[129.875,29.15],[129.875,29.2],[129.875,29.25],[129.875,29.3],[129.938,29.3],[130,29.3],[130.062,29.3],[130.125,29.3],[130.125,29.35],[130.125,29.4],[130.125,29.45],[130.125,29.5],[130.188,29.5],[130.25,29.5],[130.312,29.5],[130.375,29.5],[130.375,29.55],[130.375,29.6],[130.375,29.65],[130.375,29.7],[130.375,29.75],[130.375,29.8],[130.375,29.85],[130.375,29.9],[130.438,29.9],[130.5,29.9],[130.562,29.9],[130.625,29.9],[130.688,29.9],[130.75,29.9],[130.812,29.9],[130.875,29.9],[130.938,29.9],[131,29.9],[131.062,29.9],[131.125,29.9],[131.188,29.9],[131.25,29.9],[131.312,29.9],[131.375,29.9],[131.375,29.95],[131.375,30],[131.375,30.05],[131.375,30.1],[131.375,30.15],[131.375,30.2],[131.375,30.25],[131.375,30.3],[131.438,30.3],[131.5,30.3],[131.562,30.3],[131.625,30.3],[131.625,30.35],[131.625,30.4],[131.625,30.45],[131.625,30.5],[131.625,30.55],[131.625,30.6],[131.625,30.65],[131.625,30.7],[131.625,30.75],[131.625,30.8],[131.625,30.85],[131.625,30.9],[131.688,30.9],[131.75,30.9],[131.812,30.9],[131.875,30.9],[131.875,30.95],[131.875,31],[131.875,31.05],[131.875,31.1],[131.875,31.15],[131.875,31.2],[131.875,31.25],[131.875,31.3],[131.875,31.35],[131.875,31.4],[131.875,31.45],[131.875,31.5],[131.875,31.55],[131.875,31.6],[131.875,31.65],[131.875,31.7],[131.938,31.7],[132,31.7],[132.062,31.7],[132.125,31.7],[132.125,31.75],[132.125,31.8],[132.125,31.85],[132.125,31.9],[132.125,31.95],[132.125,32],[132.125,32.05],[132.125,32.1],[132.125,32.15],[132.125,32.2],[132.125,32.25],[132.125,32.3],[132.188,32.3],[132.25,32.3],[132.312,32.3],[132.375,32.3],[132.438,32.3],[132.5,32.3],[132.562,32.3],[132.625,32.3],[132.688,32.3],[132.75,32.3],[132.812,32.3],[132.875,32.3],[132.938,32.3],[133,32.3],[133.062,32.3],[133.125,32.3],[133.188,32.3],[133.25,32.3],[133.312,32.3],[133.375,32.3],[133.375,32.35],[133.375,32.4],[133.375,32.45],[133.375,32.5],[133.375,32.55],[133.375,32.6],[133.375,32.65],[133.375,32.7],[133.375,32.75],[133.375,32.8],[133.375,32.85],[133.375,32.9],[133.438,32.9],[133.5,32.9],[133.562,32.9],[133.625,32.9],[133.688,32.9],[133.75,32.9],[133.812,32.9],[133.875,32.9],[133.938,32.9],[134,32.9],[134.062,32.9],[134.125,32.9],[134.188,32.9],[134.25,32.9],[134.312,32.9],[134.375,32.9],[134.438,32.9],[134.5,32.9],[134.562,32.9],[134.625,32.9],[134.625,32.95],[134.625,33],[134.625,33.05],[134.625,33.1],[134.625,33.15],[134.625,33.2],[134.625,33.25],[134.625,33.3],[134.688,33.3],[134.75,33.3],[134.812,33.3],[134.875,33.3],[134.938,33.3],[135,33.3],[135.062,33.3],[135.125,33.3],[135.125,33.25],[135.125,33.2],[135.125,33.15],[135.125,33.1],[135.188,33.1],[135.25,33.1],[135.312,33.1],[135.375,33.1],[135.438,33.1],[135.5,33.1],[135.562,33.1],[135.625,33.1],[135.688,33.1],[135.75,33.1],[135.812,33.1],[135.875,33.1],[135.938,33.1],[136,33.1],[136.062,33.1],[136.125,33.1],[136.188,33.1],[136.25,33.1],[136.312,33.1],[136.375,33.1],[136.375,33.15],[136.375,33.2],[136.375,33.25],[136.375,33.3],[136.375,33.35],[136.375,33.4],[136.375,33.45],[136.375,33.5],[136.438,33.5],[136.5,33.5],[136.562,33.5],[136.625,33.5],[136.625,33.55],[136.625,33.6],[136.625,33.65],[136.625,33.7],[136.625,33.75],[136.625,33.8],[136.625,33.85],[136.625,33.9],[136.688,33.9],[136.75,33.9],[136.812,33.9],[136.875,33.9],[136.938,33.9],[137,33.9],[137.062,33.9],[137.125,33.9],[137.188,33.9],[137.25,33.9],[137.312,33.9],[137.375,33.9],[137.375,33.95],[137.375,34],[137.375,34.05],[137.375,34.1],[137.375,34.15],[137.375,34.2],[137.375,34.25],[137.375,34.3],[137.438,34.3],[137.5,34.3],[137.562,34.3],[137.625,34.3],[137.688,34.3],[137.75,34.3],[137.812,34.3],[137.875,34.3],[137.938,34.3],[138,34.3],[138.062,34.3],[138.125,34.3],[138.188,34.3],[138.25,34.3],[138.312,34.3],[138.375,34.3],[138.438,34.3],[138.5,34.3],[138.562,34.3],[138.625,34.3],[138.625,34.25],[138.625,34.2],[138.625,34.15],[138.625,34.1],[138.625,34.05],[138.625,34],[138.625,33.95],[138.625,33.9],[138.688,33.9],[138.75,33.9],[138.812,33.9],[138.875,33.9],[138.875,33.85],[138.875,33.8],[138.875,33.75],[138.875,33.7],[138.938,33.7],[139,33.7],[139.062,33.7],[139.125,33.7],[139.125,33.65],[139.125,33.6],[139.125,33.55],[139.125,33.5],[139.188,33.5],[139.25,33.5],[139.312,33.5],[139.375,33.5],[139.375,33.45],[139.375,33.4],[139.375,33.35],[139.375,33.3],[139.375,33.25],[139.375,33.2],[139.375,33.15],[139.375,33.1],[139.375,33.05],[139.375,33],[139.375,32.95],[139.375,32.9],[139.375,32.85],[139.375,32.8],[139.375,32.75],[139.375,32.7],[139.375,32.65],[139.375,32.6],[139.375,32.55],[139.375,32.5],[139.375,32.45],[139.375,32.4],[139.375,32.35],[139.375,32.3],[139.375,32.25],[139.375,32.2],[139.375,32.15],[139.375,32.1],[139.438,32.1],[139.5,32.1],[139.562,32.1],[139.625,32.1],[139.688,32.1],[139.75,32.1],[139.812,32.1],[139.875,32.1],[139.938,32.1],[140,32.1],[140.062,32.1],[140.125,32.1],[140.125,32.15],[140.125,32.2],[140.125,32.25],[140.125,32.3],[140.125,32.35],[140.125,32.4],[140.125,32.45],[140.125,32.5],[140.125,32.55],[140.125,32.6],[140.125,32.65],[140.125,32.7],[140.188,32.7],[140.25,32.7],[140.312,32.7],[140.375,32.7],[140.375,32.75],[140.375,32.8],[140.375,32.85],[140.375,32.9],[140.375,32.95],[140.375,33],[140.375,33.05],[140.375,33.1],[140.375,33.15],[140.375,33.2],[140.375,33.25],[140.375,33.3],[140.375,33.35],[140.375,33.4],[140.375,33.45],[140.375,33.5],[140.312,33.5],[140.25,33.5],[140.188,33.5],[140.125,33.5],[140.125,33.55],[140.125,33.6],[140.125,33.65],[140.125,33.7],[140.125,33.75],[140.125,33.8],[140.125,33.85],[140.125,33.9],[140.125,33.95],[140.125,34],[140.125,34.05],[140.125,34.1],[140.125,34.15],[140.125,34.2],[140.125,34.25],[140.125,34.3],[140.062,34.3],[140,34.3],[139.938,34.3],[139.875,34.3],[139.875,34.35],[139.875,34.4],[139.875,34.45],[139.875,34.5],[139.938,34.5],[140,34.5],[140.062,34.5],[140.125,34.5],[140.188,34.5],[140.25,34.5],[140.312,34.5],[140.375,34.5],[140.375,34.55],[140.375,34.6],[140.375,34.65],[140.375,34.7],[140.438,34.7],[140.5,34.7],[140.562,34.7],[140.625,34.7],[140.625,34.75],[140.625,34.8],[140.625,34.85],[140.625,34.9],[140.688,34.9],[140.75,34.9],[140.812,34.9],[140.875,34.9],[140.875,34.95],[140.875,35],[140.875,35.05],[140.875,35.1],[140.875,35.15],[140.875,35.2],[140.875,35.25],[140.875,35.3],[140.938,35.3],[141,35.3],[141.062,35.3],[141.125,35.3],[141.188,35.3],[141.25,35.3],[141.312,35.3],[141.375,35.3],[141.375,35.35],[141.375,35.4],[141.375,35.45],[141.375,35.5],[141.375,35.55],[141.375,35.6],[141.375,35.65],[141.375,35.7],[141.375,35.75],[141.375,35.8],[141.375,35.85],[141.375,35.9],[141.375,35.95],[141.375,36],[141.375,36.05],[141.375,36.1],[141.312,36.1],[141.25,36.1],[141.188,36.1],[141.125,36.1],[141.125,36.15],[141.125,36.2],[141.125,36.25],[141.125,36.3],[141.125,36.35],[141.125,36.4],[141.125,36.45],[141.125,36.5],[141.188,36.5],[141.25,36.5],[141.312,36.5],[141.375,36.5],[141.375,36.55],[141.375,36.6],[141.375,36.65],[141.375,36.7],[141.375,36.75],[141.375,36.8],[141.375,36.85],[141.375,36.9],[141.375,36.95],[141.375,37],[141.375,37.05],[141.375,37.1],[141.375,37.15],[141.375,37.2],[141.375,37.25],[141.375,37.3],[141.375,37.35],[141.375,37.4],[141.375,37.45],[141.375,37.5],[141.375,37.55],[141.375,37.6],[141.375,37.65],[141.375,37.7],[141.375,37.75],[141.375,37.8],[141.375,37.85],[141.375,37.9],[141.438,37.9],[141.5,37.9],[141.562,37.9],[141.625,37.9],[141.688,37.9],[141.75,37.9],[141.812,37.9],[141.875,37.9],[141.875,37.95],[141.875,38],[141.875,38.05],[141.875,38.1],[141.875,38.15],[141.875,38.2],[141.875,38.25],[141.875,38.3],[141.875,38.35],[141.875,38.4],[141.875,38.45],[141.875,38.5],[141.938,38.5],[142,38.5],[142.062,38.5],[142.125,38.5],[142.125,38.55],[142.125,38.6],[142.125,38.65],[142.125,38.7],[142.188,38.7],[142.25,38.7],[142.312,38.7],[142.375,38.7],[142.375,38.75],[142.375,38.8],[142.375,38.85],[142.375,38.9],[142.375,38.95],[142.375,39],[142.375,39.05],[142.375,39.1],[142.375,39.15],[142.375,39.2],[142.375,39.25],[142.375,39.3],[142.375,39.35],[142.375,39.4],[142.375,39.45],[142.375,39.5],[142.375,39.55],[142.375,39.6],[142.375,39.65],[142.375,39.7],[142.375,39.75],[142.375,39.8],[142.375,39.85],[142.375,39.9],[142.375,39.95],[142.375,40],[142.375,40.05],[142.375,40.1],[142.375,40.15],[142.375,40.2],[142.375,40.25],[142.375,40.3],[142.312,40.3],[142.25,40.3],[142.188,40.3],[142.125,40.3],[142.125,40.35],[142.125,40.4],[142.125,40.45],[142.125,40.5],[142.125,40.55],[142.125,40.6],[142.125,40.65],[142.125,40.7],[142.125,40.75],[142.125,40.8],[142.125,40.85],[142.125,40.9],[142.062,40.9],[142,40.9],[141.938,40.9],[141.875,40.9],[141.875,40.95],[141.875,41],[141.875,41.05],[141.875,41.1],[141.875,41.15],[141.875,41.2],[141.875,41.25],[141.875,41.3],[141.875,41.35],[141.875,41.4],[141.875,41.45],[141.875,41.5],[141.875,41.55],[141.875,41.6],[141.875,41.65],[141.875,41.7],[141.875,41.75],[141.875,41.8],[141.875,41.85],[141.875,41.9],[141.812,41.9],[141.75,41.9],[141.688,41.9],[141.625,41.9],[141.625,41.95],[141.625,42],[141.625,42.05],[141.625,42.1],[141.688,42.1],[141.75,42.1],[141.812,42.1],[141.875,42.1],[141.938,42.1],[142,42.1],[142.062,42.1],[142.125,42.1],[142.125,42.05],[142.125,42],[142.125,41.95],[142.125,41.9],[142.188,41.9],[142.25,41.9],[142.312,41.9],[142.375,41.9],[142.438,41.9],[142.5,41.9],[142.562,41.9],[142.625,41.9],[142.625,41.85],[142.625,41.8],[142.625,41.75],[142.625,41.7],[142.688,41.7],[142.75,41.7],[142.812,41.7],[142.875,41.7],[142.875,41.65],[142.875,41.6],[142.875,41.55],[142.875,41.5],[142.938,41.5],[143,41.5],[143.062,41.5],[143.125,41.5],[143.188,41.5],[143.25,41.5],[143.312,41.5],[143.375,41.5],[143.438,41.5],[143.5,41.5],[143.562,41.5],[143.625,41.5],[143.625,41.55],[143.625,41.6],[143.625,41.65],[143.625,41.7],[143.625,41.75],[143.625,41.8],[143.625,41.85],[143.625,41.9],[143.625,41.95],[143.625,42],[143.625,42.05],[143.625,42.1],[143.688,42.1],[143.75,42.1],[143.812,42.1],[143.875,42.1],[143.875,42.15],[143.875,42.2],[143.875,42.25],[143.875,42.3],[143.938,42.3],[144,42.3],[144.062,42.3],[144.125,42.3],[144.125,42.35],[144.125,42.4],[144.125,42.45],[144.125,42.5],[144.188,42.5],[144.25,42.5],[144.312,42.5],[144.375,42.5],[144.375,42.55],[144.375,42.6],[144.375,42.65],[144.375,42.7],[144.438,42.7],[144.5,42.7],[144.562,42.7],[144.625,42.7],[144.688,42.7],[144.75,42.7],[144.812,42.7],[144.875,42.7],[144.938,42.7],[145,42.7],[145.062,42.7],[145.125,42.7],[145.188,42.7],[145.25,42.7],[145.312,42.7],[145.375,42.7],[145.375,42.75],[145.375,42.8],[145.375,42.85],[145.375,42.9],[145.438,42.9],[145.5,42.9],[145.562,42.9],[145.625,42.9],[145.688,42.9],[145.75,42.9],[145.812,42.9],[145.875,42.9],[145.875,42.95],[145.875,43],[145.875,43.05],[145.875,43.1],[145.938,43.1],[146,43.1],[146.062,43.1],[146.125,43.1],[146.188,43.1],[146.25,43.1],[146.312,43.1],[146.375,43.1],[146.438,43.1],[146.5,43.1],[146.562,43.1],[146.625,43.1],[146.625,43.15],[146.625,43.2],[146.625,43.25],[146.625,43.3],[146.688,43.3],[146.75,43.3],[146.812,43.3],[146.875,43.3],[146.875,43.35],[146.875,43.4],[146.875,43.45],[146.875,43.5],[146.938,43.5],[147,43.5],[147.062,43.5],[147.125,43.5],[147.188,43.5],[147.25,43.5],[147.312,43.5],[147.375,43.5],[147.375,43.55],[147.375,43.6],[147.375,43.65],[147.375,43.7],[147.375,43.75],[147.375,43.8],[147.375,43.85],[147.375,43.9],[147.375,43.95],[147.375,44],[147.375,44.05],[147.375,44.1],[147.375,44.15],[147.375,44.2],[147.375,44.25],[147.375,44.3],[147.438,44.3],[147.5,44.3],[147.562,44.3],[147.625,44.3],[147.625,44.35],[147.625,44.4],[147.625,44.45],[147.625,44.5],[147.688,44.5],[147.75,44.5],[147.812,44.5],[147.875,44.5],[147.875,44.55],[147.875,44.6],[147.875,44.65],[147.875,44.7],[147.938,44.7],[148,44.7],[148.062,44.7],[148.125,44.7],[148.188,44.7],[148.25,44.7],[148.312,44.7],[148.375,44.7],[148.438,44.7],[148.5,44.7],[148.562,44.7],[148.625,44.7],[148.625,44.75],[148.625,44.8],[148.625,44.85],[148.625,44.9],[148.688,44.9],[148.75,44.9],[148.812,44.9],[148.875,44.9],[148.875,44.95],[148.875,45],[148.875,45.05],[148.875,45.1],[148.938,45.1],[149,45.1],[149.062,45.1],[149.125,45.1],[149.188,45.1],[149.25,45.1],[149.312,45.1],[149.375,45.1],[149.375,45.15],[149.375,45.2],[149.375,45.25],[149.375,45.3],[149.375,45.35],[149.375,45.4],[149.375,45.45],[149.375,45.5],[149.375,45.55],[149.375,45.6],[149.375,45.65],[149.375,45.7],[149.375,45.75],[149.375,45.8],[149.375,45.85],[149.375,45.9],[149.312,45.9],[149.25,45.9],[149.188,45.9],[149.125,45.9],[149.062,45.9],[149,45.9],[148.938,45.9],[148.875,45.9],[148.812,45.9],[148.75,45.9],[148.688,45.9],[148.625,45.9],[148.562,45.9],[148.5,45.9],[148.438,45.9],[148.375,45.9],[148.312,45.9],[148.25,45.9],[148.188,45.9],[148.125,45.9],[148.125,45.85],[148.125,45.8],[148.125,45.75],[148.125,45.7],[148.062,45.7],[148,45.7],[147.938,45.7],[147.875,45.7],[147.812,45.7],[147.75,45.7],[147.688,45.7],[147.625,45.7],[147.562,45.7],[147.5,45.7],[147.438,45.7],[147.375,45.7],[147.375,45.65],[147.375,45.6],[147.375,45.55],[147.375,45.5],[147.312,45.5],[147.25,45.5],[147.188,45.5],[147.125,45.5],[147.125,45.45],[147.125,45.4],[147.125,45.35],[147.125,45.3],[147.062,45.3],[147,45.3],[146.938,45.3],[146.875,45.3],[146.875,45.25],[146.875,45.2],[146.875,45.15],[146.875,45.1],[146.812,45.1],[146.75,45.1],[146.688,45.1],[146.625,45.1],[146.625,45.05],[146.625,45],[146.625,44.95],[146.625,44.9],[146.625,44.85],[146.625,44.8],[146.625,44.75],[146.625,44.7],[146.562,44.7],[146.5,44.7],[146.438,44.7],[146.375,44.7],[146.312,44.7],[146.25,44.7],[146.188,44.7],[146.125,44.7],[146.062,44.7],[146,44.7],[145.938,44.7],[145.875,44.7],[145.812,44.7],[145.75,44.7],[145.688,44.7],[145.625,44.7],[145.562,44.7],[145.5,44.7],[145.438,44.7],[145.375,44.7],[145.312,44.7],[145.25,44.7],[145.188,44.7],[145.125,44.7],[145.062,44.7],[145,44.7],[144.938,44.7],[144.875,44.7],[144.875,44.65],[144.875,44.6],[144.875,44.55],[144.875,44.5],[144.812,44.5],[144.75,44.5],[144.688,44.5],[144.625,44.5],[144.562,44.5],[144.5,44.5],[144.438,44.5],[144.375,44.5],[144.312,44.5],[144.25,44.5],[144.188,44.5],[144.125,44.5],[144.062,44.5],[144,44.5],[143.938,44.5],[143.875,44.5],[143.875,44.55],[143.875,44.6],[143.875,44.65],[143.875,44.7],[143.812,44.7],[143.75,44.7],[143.688,44.7],[143.625,44.7],[143.625,44.75],[143.625,44.8],[143.625,44.85],[143.625,44.9],[143.562,44.9],[143.5,44.9],[143.438,44.9],[143.375,44.9],[143.312,44.9],[143.25,44.9],[143.188,44.9],[143.125,44.9],[143.125,44.95],[143.125,45],[143.125,45.05],[143.125,45.1],[143.125,45.15],[143.125,45.2],[143.125,45.25],[143.125,45.3],[143.062,45.3],[143,45.3],[142.938,45.3],[142.875,45.3],[142.875,45.35],[142.875,45.4],[142.875,45.45],[142.875,45.5],[142.812,45.5],[142.75,45.5],[142.688,45.5],[142.625,45.5],[142.625,45.55],[142.625,45.6],[142.625,45.65],[142.625,45.7],[142.562,45.7],[142.5,45.7],[142.438,45.7],[142.375,45.7],[142.375,45.75],[142.375,45.8],[142.375,45.85],[142.375,45.9],[142.312,45.9],[142.25,45.9],[142.188,45.9],[142.125,45.9],[142.062,45.9],[142,45.9],[141.938,45.9],[141.875,45.9],[141.812,45.9],[141.75,45.9],[141.688,45.9],[141.625,45.9],[141.562,45.9],[141.5,45.9],[141.438,45.9]],[[141.938,27.9],[141.875,27.9],[141.875,27.85],[141.875,27.8],[141.875,27.75],[141.875,27.7],[141.875,27.65],[141.875,27.6],[141.875,27.55],[141.875,27.5],[141.875,27.45],[141.875,27.4],[141.875,27.35],[141.875,27.3],[141.875,27.25],[141.875,27.2],[141.875,27.15],[141.875,27.1],[141.875,27.05],[141.875,27],[141.875,26.95],[141.875,26.9],[141.875,26.85],[141.875,26.8],[141.875,26.75],[141.875,26.7],[141.875,26.65],[141.875,26.6],[141.875,26.55],[141.875,26.5],[141.875,26.45],[141.875,26.4],[141.875,26.35],[141.875,26.3],[141.938,26.3],[142,26.3],[142.062,26.3],[142.125,26.3],[142.188,26.3],[142.25,26.3],[142.312,26.3],[142.375,26.3],[142.438,26.3],[142.5,26.3],[142.562,26.3],[142.625,26.3],[142.625,26.35],[142.625,26.4],[142.625,26.45],[142.625,26.5],[142.625,26.55],[142.625,26.6],[142.625,26.65],[142.625,26.7],[142.625,26.75],[142.625,26.8],[142.625,26.85],[142.625,26.9],[142.625,26.95],[142.625,27],[142.625,27.05],[142.625,27.1],[142.625,27.15],[142.625,27.2],[142.625,27.25],[142.625,27.3],[142.625,27.35],[142.625,27.4],[142.625,27.45],[142.625,27.5],[142.625,27.55],[142.625,27.6],[142.625,27.65],[142.625,27.7],[142.625,27.75],[142.625,27.8],[142.625,27.85],[142.625,27.9],[142.562,27.9],[142.5,27.9],[142.438,27.9],[142.375,27.9],[142.312,27.9],[142.25,27.9],[142.188,27.9],[142.125,27.9],[142.062,27.9],[142,27.9],[141.938,27.9]],[[130.938,26.3],[130.875,26.3],[130.875,26.25],[130.875,26.2],[130.875,26.15],[130.875,26.1],[130.812,26.1],[130.75,26.1],[130.688,26.1],[130.625,26.1],[130.625,26.05],[130.625,26],[130.625,25.95],[130.625,25.9],[130.625,25.85],[130.625,25.8],[130.625,25.75],[130.625,25.7],[130.625,25.65],[130.625,25.6],[130.625,25.55],[130.625,25.5],[130.688,25.5],[130.75,25.5],[130.812,25.5],[130.875,25.5],[130.875,25.45],[130.875,25.4],[130.875,25.35],[130.875,25.3],[130.938,25.3],[131,25.3],[131.062,25.3],[131.125,25.3],[131.188,25.3],[131.25,25.3],[131.312,25.3],[131.375,25.3],[131.375,25.35],[131.375,25.4],[131.375,25.45],[131.375,25.5],[131.438,25.5],[131.5,25.5],[131.562,25.5],[131.625,25.5],[131.625,25.55],[131.625,25.6],[131.625,25.65],[131.625,25.7],[131.688,25.7],[131.75,25.7],[131.812,25.7],[131.875,25.7],[131.875,25.75],[131.875,25.8],[131.875,25.85],[131.875,25.9],[131.875,25.95],[131.875,26],[131.875,26.05],[131.875,26.1],[131.875,26.15],[131.875,26.2],[131.875,26.25],[131.875,26.3],[131.812,26.3],[131.75,26.3],[131.688,26.3],[131.625,26.3],[131.562,26.3],[131.5,26.3],[131.438,26.3],[131.375,26.3],[131.312,26.3],[131.25,26.3],[131.188,26.3],[131.125,26.3],[131.062,26.3],[131,26.3],[130.938,26.3]],[[124.938,25.3],[124.875,25.3],[124.875,25.25],[124.875,25.2],[124.875,25.15],[124.875,25.1],[124.812,25.1],[124.75,25.1],[124.688,25.1],[124.625,25.1],[124.562,25.1],[124.5,25.1],[124.438,25.1],[124.375,25.1],[124.375,25.05],[124.375,25],[124.375,24.95],[124.375,24.9],[124.312,24.9],[124.25,24.9],[124.188,24.9],[124.125,24.9],[124.062,24.9],[124,24.9],[123.938,24.9],[123.875,24.9],[123.812,24.9],[123.75,24.9],[123.688,24.9],[123.625,24.9],[123.562,24.9],[123.5,24.9],[123.438,24.9],[123.375,24.9],[123.312,24.9],[123.25,24.9],[123.188,24.9],[123.125,24.9],[123.062,24.9],[123,24.9],[122.938,24.9],[122.875,24.9],[122.812,24.9],[122.75,24.9],[122.688,24.9],[122.625,24.9],[122.625,24.85],[122.625,24.8],[122.625,24.75],[122.625,24.7],[122.562,24.7],[122.5,24.7],[122.438,24.7],[122.375,24.7],[122.375,24.65],[122.375,24.6],[122.375,24.55],[122.375,24.5],[122.375,24.45],[122.375,24.4],[122.375,24.35],[122.375,24.3],[122.375,24.25],[122.375,24.2],[122.375,24.15],[122.375,24.1],[122.438,24.1],[122.5,24.1],[122.562,24.1],[122.625,24.1],[122.688,24.1],[122.75,24.1],[122.812,24.1],[122.875,24.1],[122.875,24.05],[122.875,24],[122.875,23.95],[122.875,23.9],[122.938,23.9],[123,23.9],[123.062,23.9],[123.125,23.9],[123.188,23.9],[123.25,23.9],[123.312,23.9],[123.375,23.9],[123.375,23.85],[123.375,23.8],[123.375,23.75],[123.375,23.7],[123.438,23.7],[123.5,23.7],[123.562,23.7],[123.625,23.7],[123.688,23.7],[123.75,23.7],[123.812,23.7],[123.875,23.7],[123.938,23.7],[124,23.7],[124.062,23.7],[124.125,23.7],[124.188,23.7],[124.25,23.7],[124.312,23.7],[124.375,23.7],[124.375,23.75],[124.375,23.8],[124.375,23.85],[124.375,23.9],[124.375,23.95],[124.375,24],[124.375,24.05],[124.375,24.1],[124.438,24.1],[124.5,24.1],[124.562,24.1],[124.625,24.1],[124.625,24.15],[124.625,24.2],[124.625,24.25],[124.625,24.3],[124.688,24.3],[124.75,24.3],[124.812,24.3],[124.875,24.3],[124.938,24.3],[125,24.3],[125.062,24.3],[125.125,24.3],[125.188,24.3],[125.25,24.3],[125.312,24.3],[125.375,24.3],[125.438,24.3],[125.5,24.3],[125.562,24.3],[125.625,24.3],[125.688,24.3],[125.75,24.3],[125.812,24.3],[125.875,24.3],[125.875,24.35],[125.875,24.4],[125.875,24.45],[125.875,24.5],[125.875,24.55],[125.875,24.6],[125.875,24.65],[125.875,24.7],[125.875,24.75],[125.875,24.8],[125.875,24.85],[125.875,24.9],[125.875,24.95],[125.875,25],[125.875,25.05],[125.875,25.1],[125.875,25.15],[125.875,25.2],[125.875,25.25],[125.875,25.3],[125.812,25.3],[125.75,25.3],[125.688,25.3],[125.625,25.3],[125.562,25.3],[125.5,25.3],[125.438,25.3],[125.375,25.3],[125.312,25.3],[125.25,25.3],[125.188,25.3],[125.125,25.3],[125.062,25.3],[125,25.3],[124.938,25.3]]]},"properties":{"level":"NoData"}}]}